[{"OBJECT_NAME":"COSMOS 2251 DEB","OBJECT_ID":"1993-036AQG","EPOCH":"2026-04-04T11:50:11.878656","MEAN_MOTION":14.64180844,"ECCENTRICITY":0.00828998,"INCLINATION":74.0482,"RA_OF_ASC_NODE":4.0354,"ARG_OF_PERICENTER":76.8261,"MEAN_ANOMALY":284.214,"EPHEMERIS_TYPE":0,"CLASSIFICATION_TYPE":"U","NORAD_CAT_ID":35711,"ELEMENT_SET_NO":999,"REV_AT_EPOCH":89421,"BSTAR":0.00040185816,"MEAN_MOTION_DOT":2.192e-5,"MEAN_MOTION_DDOT":0},{"OBJECT_NAME":"COSMOS 2251 DEB","OBJECT_ID":"1993-036AQM","EPOCH":"2026-03-30T23:32:52.991232","MEAN_MOTION":14.60239699,"ECCENTRICITY":0.0089124,"INCLINATION":73.996,"RA_OF_ASC_NODE":347.046,"ARG_OF_PERICENTER":163.2321,"MEAN_ANOMALY":215.8389,"EPHEMERIS_TYPE":0,"CLASSIFICATION_TYPE":"U","NORAD_CAT_ID":35716,"ELEMENT_SET_NO":999,"REV_AT_EPOCH":89207,"BSTAR":0.00012880791,"MEAN_MOTION_DOT":6.24e-6,"MEAN_MOTION_DDOT":0},{"OBJECT_NAME":"COSMOS 2251 DEB","OBJECT_ID":"1993-036AQN","EPOCH":"2026-04-03T11:50:35.546208","MEAN_MOTION":14.39432407,"ECCENTRICITY":0.00792591,"INCLINATION":74.1627,"RA_OF_ASC_NODE":12.8832,"ARG_OF_PERICENTER":200.6549,"MEAN_ANOMALY":159.1398,"EPHEMERIS_TYPE":0,"CLASSIFICATION_TYPE":"U","NORAD_CAT_ID":35717,"ELEMENT_SET_NO":999,"REV_AT_EPOCH":75707,"BSTAR":0.0017994995,"MEAN_MOTION_DOT":5.792e-5,"MEAN_MOTION_DDOT":0},{"OBJECT_NAME":"COSMOS 2251 DEB","OBJECT_ID":"1993-036AQP","EPOCH":"2026-04-05T05:00:25.986240","MEAN_MOTION":14.71033206,"ECCENTRICITY":0.00098589,"INCLINATION":74.0307,"RA_OF_ASC_NODE":269.9566,"ARG_OF_PERICENTER":289.4804,"MEAN_ANOMALY":70.5302,"EPHEMERIS_TYPE":0,"CLASSIFICATION_TYPE":"U","NORAD_CAT_ID":35718,"ELEMENT_SET_NO":999,"REV_AT_EPOCH":67507,"BSTAR":0.0019713501,"MEAN_MOTION_DOT":0.00012104,"MEAN_MOTION_DDOT":0},{"OBJECT_NAME":"COSMOS 2251 DEB","OBJECT_ID":"1993-036AQS","EPOCH":"2026-03-29T23:19:49.830528","MEAN_MOTION":14.35428842,"ECCENTRICITY":0.01451697,"INCLINATION":73.9514,"RA_OF_ASC_NODE":340.0948,"ARG_OF_PERICENTER":103.7676,"MEAN_ANOMALY":257.9681,"EPHEMERIS_TYPE":0,"CLASSIFICATION_TYPE":"U","NORAD_CAT_ID":35721,"ELEMENT_SET_NO":999,"REV_AT_EPOCH":59327,"BSTAR":0.0018850546,"MEAN_MOTION_DOT":6.081e-5,"MEAN_MOTION_DDOT":0},{"OBJECT_NAME":"COSMOS 2251 DEB","OBJECT_ID":"1993-036AQV","EPOCH":"2026-04-05T06:54:39.259296","MEAN_MOTION":14.58500775,"ECCENTRICITY":0.00613642,"INCLINATION":74.0299,"RA_OF_ASC_NODE":86.5186,"ARG_OF_PERICENTER":212.6025,"MEAN_ANOMALY":147.1346,"EPHEMERIS_TYPE":0,"CLASSIFICATION_TYPE":"U","NORAD_CAT_ID":35724,"ELEMENT_SET_NO":999,"REV_AT_EPOCH":89184,"BSTAR":0.00028116084,"MEAN_MOTION_DOT":1.309e-5,"MEAN_MOTION_DDOT":0},{"OBJECT_NAME":"COSMOS 2251 DEB","OBJECT_ID":"1993-036ARD","EPOCH":"2026-04-04T23:54:26.520192","MEAN_MOTION":14.65334185,"ECCENTRICITY":0.00749864,"INCLINATION":74.0396,"RA_OF_ASC_NODE":358.1619,"ARG_OF_PERICENTER":88.6572,"MEAN_ANOMALY":272.3186,"EPHEMERIS_TYPE":0,"CLASSIFICATION_TYPE":"U","NORAD_CAT_ID":35759,"ELEMENT_SET_NO":999,"REV_AT_EPOCH":67794,"BSTAR":0.00039861641,"MEAN_MOTION_DOT":2.211e-5,"MEAN_MOTION_DDOT":0},{"OBJECT_NAME":"COSMOS 2251 DEB","OBJECT_ID":"1993-036ARJ","EPOCH":"2026-03-24T12:04:14.930976","MEAN_MOTION":14.78548314,"ECCENTRICITY":0.00267021,"INCLINATION":74.0225,"RA_OF_ASC_NODE":143.4217,"ARG_OF_PERICENTER":242.1543,"MEAN_ANOMALY":117.6927,"EPHEMERIS_TYPE":0,"CLASSIFICATION_TYPE":"U","NORAD_CAT_ID":35764,"ELEMENT_SET_NO":999,"REV_AT_EPOCH":67551,"BSTAR":0.00097590043,"MEAN_MOTION_DOT":7.149e-5,"MEAN_MOTION_DDOT":0},{"OBJECT_NAME":"COSMOS 2251 DEB","OBJECT_ID":"1993-036ARR","EPOCH":"2026-04-05T00:06:03.758688","MEAN_MOTION":14.15795768,"ECCENTRICITY":0.02081509,"INCLINATION":74.1537,"RA_OF_ASC_NODE":110.8245,"ARG_OF_PERICENTER":16.316,"MEAN_ANOMALY":344.4548,"EPHEMERIS_TYPE":0,"CLASSIFICATION_TYPE":"U","NORAD_CAT_ID":35771,"ELEMENT_SET_NO":999,"REV_AT_EPOCH":84462,"BSTAR":0.0054293014,"MEAN_MOTION_DOT":0.00013164,"MEAN_MOTION_DDOT":0},{"OBJECT_NAME":"COSMOS 2251 DEB","OBJECT_ID":"1993-036ART","EPOCH":"2026-04-04T08:01:12.248256","MEAN_MOTION":14.62818523,"ECCENTRICITY":0.0048531,"INCLINATION":74.0052,"RA_OF_ASC_NODE":124.7413,"ARG_OF_PERICENTER":255.7327,"MEAN_ANOMALY":103.8448,"EPHEMERIS_TYPE":0,"CLASSIFICATION_TYPE":"U","NORAD_CAT_ID":35773,"ELEMENT_SET_NO":999,"REV_AT_EPOCH":88485,"BSTAR":0.00078971496,"MEAN_MOTION_DOT":4.071e-5,"MEAN_MOTION_DDOT":0},{"OBJECT_NAME":"COSMOS 2251 DEB","OBJECT_ID":"1993-036ARX","EPOCH":"2026-04-04T09:29:25.200384","MEAN_MOTION":13.41415394,"ECCENTRICITY":0.04498607,"INCLINATION":73.7688,"RA_OF_ASC_NODE":142.7511,"ARG_OF_PERICENTER":20.5221,"MEAN_ANOMALY":356.0961,"EPHEMERIS_TYPE":0,"CLASSIFICATION_TYPE":"U","NORAD_CAT_ID":35777,"ELEMENT_SET_NO":999,"REV_AT_EPOCH":81195,"BSTAR":0.00062259339,"MEAN_MOTION_DOT":6.08e-6,"MEAN_MOTION_DDOT":0},{"OBJECT_NAME":"COSMOS 2251 DEB","OBJECT_ID":"1993-036ASE","EPOCH":"2026-04-01T16:43:35.753376","MEAN_MOTION":14.50310733,"ECCENTRICITY":0.00413211,"INCLINATION":74.0357,"RA_OF_ASC_NODE":243.1818,"ARG_OF_PERICENTER":343.8854,"MEAN_ANOMALY":16.0989,"EPHEMERIS_TYPE":0,"CLASSIFICATION_TYPE":"U","NORAD_CAT_ID":35784,"ELEMENT_SET_NO":999,"REV_AT_EPOCH":67300,"BSTAR":0.00028955303,"MEAN_MOTION_DOT":1.113e-5,"MEAN_MOTION_DDOT":0},{"OBJECT_NAME":"COSMOS 2251 DEB","OBJECT_ID":"1993-036ASG","EPOCH":"2026-04-02T23:30:12.527424","MEAN_MOTION":14.67649585,"ECCENTRICITY":0.00364994,"INCLINATION":74.0144,"RA_OF_ASC_NODE":188.8317,"ARG_OF_PERICENTER":288.4312,"MEAN_ANOMALY":71.2891,"EPHEMERIS_TYPE":0,"CLASSIFICATION_TYPE":"U","NORAD_CAT_ID":35786,"ELEMENT_SET_NO":999,"REV_AT_EPOCH":75039,"BSTAR":0.0017052346,"MEAN_MOTION_DOT":9.776e-5,"MEAN_MOTION_DDOT":0},{"OBJECT_NAME":"COSMOS 2251 DEB","OBJECT_ID":"1993-036ASK","EPOCH":"2026-04-04T09:18:25.607232","MEAN_MOTION":14.36076997,"ECCENTRICITY":0.00473997,"INCLINATION":74.0368,"RA_OF_ASC_NODE":77.5844,"ARG_OF_PERICENTER":152.4852,"MEAN_ANOMALY":207.8825,"EPHEMERIS_TYPE":0,"CLASSIFICATION_TYPE":"U","NORAD_CAT_ID":35789,"ELEMENT_SET_NO":999,"REV_AT_EPOCH":62844,"BSTAR":0.0001467833,"MEAN_MOTION_DOT":4.07e-6,"MEAN_MOTION_DDOT":0},{"OBJECT_NAME":"COSMOS 2251 DEB","OBJECT_ID":"1993-036ASP","EPOCH":"2026-04-03T13:45:59.217984","MEAN_MOTION":14.82171128,"ECCENTRICITY":0.0006321,"INCLINATION":74.0409,"RA_OF_ASC_NODE":199.8026,"ARG_OF_PERICENTER":263.3825,"MEAN_ANOMALY":114.5374,"EPHEMERIS_TYPE":0,"CLASSIFICATION_TYPE":"U","NORAD_CAT_ID":35793,"ELEMENT_SET_NO":999,"REV_AT_EPOCH":67452,"BSTAR":0.0030159,"MEAN_MOTION_DOT":0.00024092,"MEAN_MOTION_DDOT":0},{"OBJECT_NAME":"COSMOS 2251 DEB","OBJECT_ID":"1993-036ASW","EPOCH":"2026-04-03T02:20:08.310624","MEAN_MOTION":13.88890643,"ECCENTRICITY":0.0252025,"INCLINATION":73.8445,"RA_OF_ASC_NODE":217.2882,"ARG_OF_PERICENTER":283.2565,"MEAN_ANOMALY":74.0565,"EPHEMERIS_TYPE":0,"CLASSIFICATION_TYPE":"U","NORAD_CAT_ID":35824,"ELEMENT_SET_NO":999,"REV_AT_EPOCH":85773,"BSTAR":0.001148307,"MEAN_MOTION_DOT":1.764e-5,"MEAN_MOTION_DDOT":0}]
