COSMOS 2251 DEB         
1 35711U 93036AQG 26094.49319304  .00002192  00000+0  40186-3 0  9997
2 35711  74.0482   4.0354 0082899  76.8261 284.2140 14.64180844894211
COSMOS 2251 DEB         
1 35716U 93036AQM 26089.98116888  .00000624  00000+0  12881-3 0  9991
2 35716  73.9960 347.0460 0089124 163.2321 215.8389 14.60239699892075
COSMOS 2251 DEB         
1 35717U 93036AQN 26093.49346697  .00005792  00000+0  17995-2 0  9997
2 35717  74.1627  12.8832 0079259 200.6549 159.1398 14.39432407757073
COSMOS 2251 DEB         
1 35718U 93036AQP 26095.20863410  .00012104  00000+0  19714-2 0  9992
2 35718  74.0307 269.9566 0009858 289.4804  70.5302 14.71033206675074
COSMOS 2251 DEB         
1 35721U 93036AQS 26088.97210452  .00006081  00000+0  18851-2 0  9992
2 35721  73.9514 340.0948 0145169 103.7676 257.9681 14.35428842593278
COSMOS 2251 DEB         
1 35724U 93036AQV 26095.28795439  .00001309  00000+0  28116-3 0  9994
2 35724  74.0299  86.5186 0061364 212.6025 147.1346 14.58500775891844
COSMOS 2251 DEB         
1 35759U 93036ARD 26094.99614028  .00002211  00000+0  39862-3 0  9996
2 35759  74.0396 358.1619 0074986  88.6572 272.3186 14.65334185677945
COSMOS 2251 DEB         
1 35764U 93036ARJ 26083.50295059  .00007149  00000+0  97590-3 0  9993
2 35764  74.0225 143.4217 0026702 242.1543 117.6927 14.78548314675519
COSMOS 2251 DEB         
1 35771U 93036ARR 26095.00421017  .00013164  00000+0  54293-2 0  9990
2 35771  74.1537 110.8245 0208150  16.3160 344.4548 14.15795768844625
COSMOS 2251 DEB         
1 35773U 93036ART 26094.33416954  .00004071  00000+0  78971-3 0  9998
2 35773  74.0052 124.7413 0048531 255.7327 103.8448 14.62818523884850
COSMOS 2251 DEB         
1 35777U 93036ARX 26094.39543056  .00000608  00000+0  62259-3 0  9996
2 35777  73.7688 142.7511 0449860  20.5221 356.0961 13.41415394811953
COSMOS 2251 DEB         
1 35784U 93036ASE 26091.69694159  .00001113  00000+0  28955-3 0  9992
2 35784  74.0357 243.1818 0041321 343.8854  16.0989 14.50310733673004
COSMOS 2251 DEB         
1 35786U 93036ASG 26092.97931166  .00009776  00000+0  17052-2 0  9996
2 35786  74.0144 188.8317 0036499 288.4312  71.2891 14.67649585750393
COSMOS 2251 DEB         
1 35789U 93036ASK 26094.38779638  .00000407  00000+0  14678-3 0  9994
2 35789  74.0368  77.5844 0047399 152.4852 207.8825 14.36076997628444
COSMOS 2251 DEB         
1 35793U 93036ASP 26093.57360206  .00024092  00000+0  30159-2 0  9993
2 35793  74.0409 199.8026 0006321 263.3825 114.5374 14.82171128674523
COSMOS 2251 DEB         
1 35824U 93036ASW 26093.09731841  .00001764  00000+0  11483-2 0  9992
2 35824  73.8445 217.2882 0252025 283.2565  74.0565 13.88890643857739
